[{"OBJECT_NAME":"STARLINK-6305","OBJECT_ID":"2023-061W","EPOCH":"2026-03-08T09:13:35.915808","MEAN_MOTION":15.02540998,"ECCENTRICITY":0.00014665,"INCLINATION":43.004,"RA_OF_ASC_NODE":191.9609,"ARG_OF_PERICENTER":265.0576,"MEAN_ANOMALY":95.0099,"EPHEMERIS_TYPE":0,"CLASSIFICATION_TYPE":"U","NORAD_CAT_ID":56394,"ELEMENT_SET_NO":999,"REV_AT_EPOCH":15670,"BSTAR":6.9100854e-5,"MEAN_MOTION_DOT":7.3e-6,"MEAN_MOTION_DDOT":0},{"OBJECT_NAME":"OPS 6553","OBJECT_ID":"1982-041C","EPOCH":"2026-03-09T22:03:24.080544","MEAN_MOTION":15.05429153,"ECCENTRICITY":0.00081122,"INCLINATION":95.9935,"RA_OF_ASC_NODE":204.8515,"ARG_OF_PERICENTER":276.7874,"MEAN_ANOMALY":83.2434,"EPHEMERIS_TYPE":0,"CLASSIFICATION_TYPE":"U","NORAD_CAT_ID":13172,"ELEMENT_SET_NO":999,"REV_AT_EPOCH":10072,"BSTAR":0.00048705,"MEAN_MOTION_DOT":6.956e-5,"MEAN_MOTION_DDOT":0}]
